ORBCOMM-X               
1 21576U 91050C   25109.17037131  .00000639  00000+0  20295-3 0  9994
2 21576  98.3471 176.9609 0003826  25.2229 334.9147 14.43206180773821
ORBCOMM FM01            
1 23545U 95017A   25109.51534195  .00010264  00000+0  10887-2 0  9999
2 23545  69.9638 220.3576 0002017 340.2164  19.8911 14.89293699604129
ORBCOMM FM02            
1 23546U 95017B   25109.48885556  .00015417  00000+0  16034-2 0  9991
2 23546  69.9651 239.9827 0002623  10.1318 349.9889 14.89945419603716
ORBCOMM FM08            
1 25112U 97084A   25109.51278023  .00002698  00000+0  79682-3 0  9993
2 25112  45.0137 289.4860 0005615 305.4410  54.5917 14.45587208433054
ORBCOMM FM10            
1 25113U 97084B   25109.55444580  .00002446  00000+0  72955-3 0  9998
2 25113  45.0149 291.5647 0004439 265.9335  94.1009 14.45375250433047
ORBCOMM FM11            
1 25114U 97084C   25109.54891633  .00002740  00000+0  81624-3 0  9993
2 25114  45.0136 292.1187 0005205 269.8400  90.1854 14.45128799433024
ORBCOMM FM12            
1 25115U 97084D   25108.95922447  .00002483  00000+0  74330-3 0  9996
2 25115  45.0144 294.7028 0004235 262.6007  97.4363 14.45146777432943
ORBCOMM FM09            
1 25116U 97084E   25108.91739571  .00002477  00000+0  74338-3 0  9998
2 25116  45.0147 295.7786 0005715 253.2381 106.7843 14.45029639432937
